NORAD_CAT_ID,OBJECT_NAME,OBJECT_TYPE,EPOCH,MEAN_MOTION,ECCENTRICITY,INCLINATION,RA_OF_ASC_NODE,ARG_OF_PERICENTER,MEAN_ANOMALY,BSTAR,MEAN_MOTION_DOT,MEAN_MOTION_DDOT,TLE_LINE0,TLE_LINE1,TLE_LINE2,SEMIMAJOR_AXIS,PERIOD,APOGEE,PERIGEE,DECAYED
52661.0,STARLINK-4042,PAYLOAD,2022-08-22 22:00:00,15.08825265,0.0001653,53.2141,206.5798,62.4196,87.1859,0.0012249,0.00019252,0.0,0 STARLINK-4042,1 52661U 22053F   22234.91667824  .00019252  00000-0  12249-2 0  9997,2 52661  53.2141 206.5798 0001653  62.4196  87.1859 15.08825265  1302,6917.925,95.438,540.934,538.6469999999998,0.0
52661.0,STARLINK-4042,PAYLOAD,2022-08-23 04:00:00,15.08839153,0.0001764,53.2138,205.4589,56.8353,11.4561,-0.0014930999999999,-0.00023972,0.0,0 STARLINK-4042,1 52661U 22053F   22235.16667824 -.00023972  00000-0 -14931-2 0  9991,2 52661  53.2138 205.4589 0001764  56.8353  11.4561 15.08839153 15619,6917.8830000000025,95.438,540.9680000000002,538.528,0.0
52661.0,STARLINK-4042,PAYLOAD,2022-08-23 14:00:01,15.08847672,0.0001721999999999,53.2135,203.5877,57.6054,115.1621,-0.0020535999999999,-0.0003283,0.0,0 STARLINK-4042,1 52661U 22053F   22235.58334491 -.00032830  00000-0 -20536-2 0  9999,2 52661  53.2135 203.5877 0001722  57.6054 115.1621 15.08847672  1301,6917.857,95.437,540.913,538.531,0.0
52661.0,STARLINK-4042,PAYLOAD,2022-08-23 20:00:01,15.08815905,0.0001661,53.2136,202.4645,62.9093,28.5575,0.002565,0.00040743,0.0,0 STARLINK-4042,1 52661U 22053F   22235.83334491  .00040743  00000-0  25650-2 0  9999,2 52661  53.2136 202.4645 0001661  62.9093  28.5575 15.08815905 15716,6917.954000000002,95.439,540.9680000000002,538.67,0.0
52661.0,STARLINK-4042,PAYLOAD,2022-08-23 22:00:01,15.08835884,0.0001699,53.2138,202.0907,64.2749,120.1434,0.0007393,0.00011496,0.0,0 STARLINK-4042,1 52661U 22053F   22235.91668981  .00011496  00000-0  73930-3 0  9990,2 52661  53.2138 202.0907 0001699  64.2749 120.1434 15.08835884  1300,6917.893,95.438,540.933,538.5830000000002,0.0
52661.0,STARLINK-4042,PAYLOAD,2022-08-24 14:00:01,15.08852824,0.000176,53.2134,199.0984,59.4446,148.0901,-0.0020151,-0.00032227,0.0,0 STARLINK-4042,1 52661U 22053F   22236.58334491 -.00032227  00000-0 -20151-2 0  9993,2 52661  53.2134 199.0984 0001760  59.4446 148.0901 15.08852824 15828,6917.840999999999,95.437,540.924,538.489,0.0
52661.0,STARLINK-4042,PAYLOAD,2022-08-24 22:00:00,15.08844407,0.0001769,53.2136,197.6015,65.4977,153.6304,0.00035766,5.409e-05,0.0,0 STARLINK-4042,1 52661U 22053F   22236.91667824  .00005409  00000-0  35766-3 0  9998,2 52661  53.2136 197.6015 0001769  65.4977 153.6304 15.08844407  1309,6917.8669999999975,95.437,540.956,538.508,0.0
52661.0,STARLINK-4042,PAYLOAD,2022-08-25 06:00:02,15.08830637,0.0001927,53.2135,196.1067,58.03100000000001,172.7673,0.0012950999999999,0.00020378,0.0,0 STARLINK-4042,1 52661U 22053F   22237.25002315  .00020378  00000-0  12951-2 0  9996,2 52661  53.2135 196.1067 0001927  58.0310 172.7673 15.08830637 15928,6917.909000000002,95.438,541.107,538.441,0.0
52661.0,STARLINK-4042,PAYLOAD,2022-08-25 14:00:01,15.08859105,0.0001821999999999,53.2135,194.6089,60.2378,182.0895,-0.0017638999999999,-0.00028266,0.0,0 STARLINK-4042,1 52661U 22053F   22237.58334491 -.00028266  00000-0 -17639-2 0  9999,2 52661  53.2135 194.6089 0001822  60.2378 182.0895 15.08859105  1306,6917.821999999999,95.436,540.947,538.427,0.0
52661.0,STARLINK-4042,PAYLOAD,2022-08-25 22:00:00,15.08878092,0.0001823,53.2148,193.11,66.8163,187.1095,-0.0034923,-0.00055499,0.0,0 STARLINK-4042,1 52661U 22053F   22237.91667824 -.00055499  00000-0 -34923-2 0  9998,2 52661  53.2148 193.1100 0001823  66.8163 187.1095 15.08878092  1307,6917.764,95.435,540.89,538.368,0.0
52661.0,STARLINK-4042,PAYLOAD,2022-08-26 06:00:00,15.08817636,0.0001949,53.2139,191.6173,57.0076,208.5413,0.00080536,0.00012545,0.0,0 STARLINK-4042,1 52661U 22053F   22238.25001157  .00012545  00000-0  80536-3 0  9992,2 52661  53.2139 191.6173 0001949  57.0076 208.5413 15.08817636 16073,6917.949000000001,95.439,541.1619999999998,538.465,0.0
52661.0,STARLINK-4042,PAYLOAD,2022-08-26 14:00:01,15.0883861,0.0001879,53.2174,190.1152,53.9036,223.2468,-0.00023944,-4.097e-05,0.0,0 STARLINK-4042,1 52661U 22053F   22238.58335648 -.00004097  00000-0 -23944-3 0  9998,2 52661  53.2174 190.1152 0001879  53.9036 223.2468 15.08838610  1305,6917.885,95.438,541.05,538.45,0.0
52661.0,STARLINK-4042,PAYLOAD,2022-08-26 22:00:00,15.08839994,0.0001851,53.2144,188.6228,63.7211,224.9797,-0.00010103,-1.896e-05,0.0,0 STARLINK-4042,1 52661U 22053F   22238.91667824 -.00001896  00000-0 -10103-3 0  9996,2 52661  53.2144 188.6228 0001851  63.7211 224.9797 15.08839994  1301,6917.88,95.438,541.026,538.465,0.0
52661.0,STARLINK-4042,PAYLOAD,2022-08-27 14:00:01,15.08847899,0.0001909999999999,53.2149,185.6302,60.2258,251.6607,-0.00091264,-0.00014787,0.0,0 STARLINK-4042,1 52661U 22053F   22239.58334491 -.00014787  00000-0 -91264-3 0  9991,2 52661  53.2149 185.6302 0001910  60.2258 251.6607 15.08847899  1305,6917.856,95.437,541.043,538.4,0.0
52661.0,STARLINK-4042,PAYLOAD,2022-08-27 22:00:00,15.08863056,0.0001909999999999,53.2152,184.1336,63.8385,259.6422,-0.0010634,-0.00017183,0.0,0 STARLINK-4042,1 52661U 22053F   22239.91667824 -.00017183  00000-0 -10634-2 0  9991,2 52661  53.2152 184.1336 0001910  63.8385 259.6422 15.08863056  1306,6917.81,95.436,540.996,538.354,0.0
52661.0,STARLINK-4042,PAYLOAD,2022-08-28 04:00:00,15.088532199999998,0.0002011,53.2152,183.0127,57.997,184.2019,-0.0020792,-0.00033239,0.0,0 STARLINK-4042,1 52661U 22053F   22240.16667824 -.00033239  00000-0 -20792-2 0  9996,2 52661  53.2152 183.0127 0002011  57.9970 184.2019 15.08853220 16368,6917.84,95.437,541.096,538.314,0.0
52661.0,STARLINK-4042,PAYLOAD,2022-08-28 14:00:01,15.08836911,0.0001865,53.2155,181.141,60.4129,286.2833,-0.00019102,-3.327e-05,0.0,0 STARLINK-4042,1 52661U 22053F   22240.58334491 -.00003327  00000-0 -19102-3 0  9992,2 52661  53.2155 181.1410 0001865  60.4129 286.2833 15.08836911  1309,6917.89,95.438,541.045,538.465,0.0
52661.0,STARLINK-4042,PAYLOAD,2022-08-28 20:00:01,15.08836191,0.0001851999999999,53.2157,180.0183,64.4171,200.9677,0.0014006,0.00022071,0.0,0 STARLINK-4042,1 52661U 22053F   22240.83334491  .00022071  00000-0  14006-2 0  9992,2 52661  53.2157 180.0183 0001852  64.4171 200.9677 15.08836191 16465,6917.892,95.438,541.038,538.476,0.0
52661.0,STARLINK-4042,PAYLOAD,2022-08-28 22:00:00,15.08858648,0.0001854,53.2158,179.6447,62.9765,295.3014,-0.0014317,-0.00023013,0.0,0 STARLINK-4042,1 52661U 22053F   22240.91667824 -.00023013  00000-0 -14317-2 0  9994,2 52661  53.2158 179.6447 0001854  62.9765 295.3014 15.08858648  1308,6917.823,95.436,540.971,538.406,0.0
52661.0,STARLINK-4042,PAYLOAD,2022-08-29 04:00:00,15.08840333,0.0001963,53.2157,178.5237,57.2607,219.7266,-0.0017261,-0.00027655,0.0,0 STARLINK-4042,1 52661U 22053F   22241.16667824 -.00027655  00000-0 -17261-2 0  9999,2 52661  53.2157 178.5237 0001963  57.2607 219.7266 15.08840333 16515,6917.879,95.438,541.102,538.386,0.0
52661.0,STARLINK-4042,PAYLOAD,2022-08-29 14:00:01,15.08821051,0.0001785,53.2157,176.6519,60.8616,320.6078,0.00033813,5.095e-05,0.0,0 STARLINK-4042,1 52661U 22053F   22241.58334491  .00005095  00000-0  33813-3 0  9990,2 52661  53.2157 176.6519 0001785  60.8616 320.6078 15.08821051  1309,6917.938,95.439,541.038,538.568,0.0
52661.0,STARLINK-4042,PAYLOAD,2022-08-29 20:00:01,15.08828955,0.0001784,53.2158,175.5294,64.6916,235.4555,0.001107,0.00017369,0.0,0 STARLINK-4042,1 52661U 22053F   22241.83334491  .00017369  00000-0  11070-2 0  9995,2 52661  53.2158 175.5294 0001784  64.6916 235.4555 15.08828955 16615,6917.9140000000025,95.438,541.013,538.545,0.0
52661.0,STARLINK-4042,PAYLOAD,2022-08-29 22:00:00,15.08846648,0.0001804,53.2159,175.1559,62.9657,330.0730000000001,-0.001117,-0.00018025,0.0,0 STARLINK-4042,1 52661U 22053F   22241.91667824 -.00018025  00000-0 -11170-2 0  9996,2 52661  53.2159 175.1559 0001804  62.9657 330.0730 15.08846648  1308,6917.86,95.437,540.9730000000002,538.477,0.0
52661.0,STARLINK-4042,PAYLOAD,2022-08-30 14:00:01,15.08843084,0.0001749,53.2154,172.1628,62.8079,353.4248,0.00019745,2.856e-05,0.0,0 STARLINK-4042,1 52661U 22053F   22242.58334491  .00002856  00000-0  19745-3 0  9991,2 52661  53.2154 172.1628 0001749  62.8079 353.4248 15.08843084  1306,6917.871,95.437,540.946,538.526,0.0
52661.0,STARLINK-4042,PAYLOAD,2022-08-30 22:00:00,15.08852673,0.0001726,53.2154,170.667,63.3551,4.4715,-0.0031109,-0.00049476,0.0,0 STARLINK-4042,1 52661U 22053F   22242.91667824 -.00049476  00000-0 -31109-2 0  9995,2 52661  53.2154 170.6670 0001726  63.3551   4.4715 15.08852673 16786,6917.842,95.437,540.901,538.513,0.0
52661.0,STARLINK-4042,PAYLOAD,2022-08-31 12:00:00,15.08835926,0.0001733999999999,53.2147,168.0482,61.1891,296.9043,-0.001389,-0.00022324,0.0,0 STARLINK-4042,1 52661U 22053F   22243.50001157 -.00022324  00000-0 -13890-2 0  9992,2 52661  53.2147 168.0482 0001734  61.1891 296.9043 15.08835926 16865,6917.893,95.438,540.957,538.558,0.0
52661.0,STARLINK-4042,PAYLOAD,2022-08-31 14:00:01,15.08814598,0.0001672,53.2147,167.6738,63.5522,27.4433,0.0014307,0.00022539,0.0,0 STARLINK-4042,1 52661U 22053F   22243.58334491  .00022539  00000-0  14307-2 0  9990,2 52661  53.2147 167.6738 0001672  63.5522  27.4433 15.08814598  1307,6917.958000000001,95.439,540.98,538.6659999999998,0.0
52661.0,STARLINK-4042,PAYLOAD,2022-08-31 20:00:01,15.08841448,0.0001717,53.2147,166.5516,66.6991,302.9757,0.00030384,4.551e-05,0.0,0 STARLINK-4042,1 52661U 22053F   22243.83334491  .00004551  00000-0  30384-3 0  9996,2 52661  53.2147 166.5516 0001717  66.6991 302.9757 15.08841448 16921,6917.876,95.437,540.929,538.553,0.0
52661.0,STARLINK-4042,PAYLOAD,2022-08-31 22:00:00,15.08853864,0.000175,53.2146,166.178,64.7613,37.8098,-0.0015117,-0.00024276,0.0,0 STARLINK-4042,1 52661U 22053F   22243.91667824 -.00024276  00000-0 -15117-2 0  9998,2 52661  53.2146 166.1780 0001750  64.7613  37.8098 15.08853864  1309,6917.8380000000025,95.437,540.914,538.492,0.0
